{
  "type": "FeatureCollection",
  "features": [
    {
      "type": "Feature",
      "properties": {
        "norad_id": 38062,
        "name": "COSMOS 2251 DEB",
        "group": "cosmos-2251-debris",
        "lat": -55.48154285903239,
        "lon": 108.00189683459071,
        "alt_km": 595.7347383795186,
        "timestamp": "2025-12-26T03:50:12.492269+00:00",
        "meta_object_name": "COSMOS 2251 DEB",
        "meta_object_id": "1993-036BRU",
        "meta_epoch": "2025-12-20T12:40:12.328608",
        "meta_mean_motion": 14.95206267,
        "meta_eccentricity": 0.00129431,
        "meta_inclination": 74.0088,
        "meta_ra_of_asc_node": 274.7346,
        "meta_arg_of_pericenter": 42.7602,
        "meta_mean_anomaly": 131.9089,
        "meta_ephemeris_type": 0,
        "meta_classification_type": "U",
        "meta_norad_cat_id": 38062,
        "meta_element_set_no": 999,
        "meta_rev_at_epoch": 63146,
        "meta_bstar": 0.0014745207,
        "meta_mean_motion_dot": 0.00016237,
        "meta_mean_motion_ddot": 0,
        "tle_line1": "1 38062U 93036BRU 25354.52792047  .00016237  00000+0  14745-2 0  9996",
        "tle_line2": "2 38062  74.0088 274.7346 0012943  42.7602 131.9089 14.95206267631464"
      },
      "geometry": {
        "type": "Point",
        "coordinates": [
          108.00189683459071,
          -55.48154285903239
        ]
      }
    },
    {
      "type": "Feature",
      "properties": {
        "norad_id": 38064,
        "name": "COSMOS 2251 DEB",
        "group": "cosmos-2251-debris",
        "lat": 73.05516540880586,
        "lon": 168.76629249963153,
        "alt_km": 719.4321451933356,
        "timestamp": "2025-12-26T03:50:12.492279+00:00",
        "meta_object_name": "COSMOS 2251 DEB",
        "meta_object_id": "1993-036BRW",
        "meta_epoch": "2025-12-24T00:20:31.022880",
        "meta_mean_motion": 14.5638999,
        "meta_eccentricity": 0.00470717,
        "meta_inclination": 74.023,
        "meta_ra_of_asc_node": 102.7307,
        "meta_arg_of_pericenter": 220.4178,
        "meta_mean_anomaly": 139.3486,
        "meta_ephemeris_type": 0,
        "meta_classification_type": "U",
        "meta_norad_cat_id": 38064,
        "meta_element_set_no": 999,
        "meta_rev_at_epoch": 72029,
        "meta_bstar": 0.0010077447,
        "meta_mean_motion_dot": 4.512e-05,
        "meta_mean_motion_ddot": 0,
        "tle_line1": "1 38064U 93036BRW 25358.01424795  .00004512  00000+0  10077-2 0  9995",
        "tle_line2": "2 38064  74.0230 102.7307 0047071 220.4178 139.3486 14.56389990720290"
      },
      "geometry": {
        "type": "Point",
        "coordinates": [
          168.76629249963153,
          73.05516540880586
        ]
      }
    },
    {
      "type": "Feature",
      "properties": {
        "norad_id": 38067,
        "name": "COSMOS 2251 DEB",
        "group": "cosmos-2251-debris",
        "lat": -60.081847352665136,
        "lon": -141.05713876225022,
        "alt_km": 702.0303444796155,
        "timestamp": "2025-12-26T03:50:12.492290+00:00",
        "meta_object_name": "COSMOS 2251 DEB",
        "meta_object_id": "1993-036BRZ",
        "meta_epoch": "2025-12-23T23:37:20.127936",
        "meta_mean_motion": 14.61165668,
        "meta_eccentricity": 0.0069893,
        "meta_inclination": 74.016,
        "meta_ra_of_asc_node": 252.9804,
        "meta_arg_of_pericenter": 37.5842,
        "meta_mean_anomaly": 339.4482,
        "meta_ephemeris_type": 0,
        "meta_classification_type": "U",
        "meta_norad_cat_id": 38067,
        "meta_element_set_no": 999,
        "meta_rev_at_epoch": 62720,
        "meta_bstar": 0.00036242,
        "meta_mean_motion_dot": 1.816e-05,
        "meta_mean_motion_ddot": 0,
        "tle_line1": "1 38067U 93036BRZ 25357.98426074  .00001816  00000+0  36242-3 0  9992",
        "tle_line2": "2 38067  74.0160 252.9804 0069893  37.5842 339.4482 14.61165668627202"
      },
      "geometry": {
        "type": "Point",
        "coordinates": [
          -141.05713876225022,
          -60.081847352665136
        ]
      }
    },
    {
      "type": "Feature",
      "properties": {
        "norad_id": 38197,
        "name": "COSMOS 2251 DEB",
        "group": "cosmos-2251-debris",
        "lat": -31.474734843176964,
        "lon": -39.47461585823946,
        "alt_km": 697.976199123149,
        "timestamp": "2025-12-26T03:50:12.492300+00:00",
        "meta_object_name": "COSMOS 2251 DEB",
        "meta_object_id": "1993-036BSM",
        "meta_epoch": "2025-12-22T15:18:58.604256",
        "meta_mean_motion": 14.74460834,
        "meta_eccentricity": 0.01247811,
        "meta_inclination": 73.938,
        "meta_ra_of_asc_node": 337.6017,
        "meta_arg_of_pericenter": 212.6548,
        "meta_mean_anomaly": 146.6868,
        "meta_ephemeris_type": 0,
        "meta_classification_type": "U",
        "meta_norad_cat_id": 38197,
        "meta_element_set_no": 999,
        "meta_rev_at_epoch": 85901,
        "meta_bstar": 0.0030808591,
        "meta_mean_motion_dot": 0.00023252,
        "meta_mean_motion_ddot": 0,
        "tle_line1": "1 38197U 93036BSM 25356.63817829  .00023252  00000+0  30809-2 0  9999",
        "tle_line2": "2 38197  73.9380 337.6017 0124781 212.6548 146.6868 14.74460834859011"
      },
      "geometry": {
        "type": "Point",
        "coordinates": [
          -39.47461585823946,
          -31.474734843176964
        ]
      }
    },
    {
      "type": "Feature",
      "properties": {
        "norad_id": 38199,
        "name": "COSMOS 2251 DEB",
        "group": "cosmos-2251-debris",
        "lat": -42.23691657462858,
        "lon": -124.71450609670836,
        "alt_km": 1060.5103418957679,
        "timestamp": "2025-12-26T03:50:12.492311+00:00",
        "meta_object_name": "COSMOS 2251 DEB",
        "meta_object_id": "1993-036BSP",
        "meta_epoch": "2025-12-23T11:22:51.988512",
        "meta_mean_motion": 13.64808888,
        "meta_eccentricity": 0.03701637,
        "meta_inclination": 73.9557,
        "meta_ra_of_asc_node": 44.5515,
        "meta_arg_of_pericenter": 328.9029,
        "meta_mean_anomaly": 29.0633,
        "meta_ephemeris_type": 0,
        "meta_classification_type": "U",
        "meta_norad_cat_id": 38199,
        "meta_element_set_no": 999,
        "meta_rev_at_epoch": 61168,
        "meta_bstar": 0.00059794488,
        "meta_mean_motion_dot": 7.45e-06,
        "meta_mean_motion_ddot": 0,
        "tle_line1": "1 38199U 93036BSP 25357.47421283  .00000745  00000+0  59794-3 0  9996",
        "tle_line2": "2 38199  73.9557  44.5515 0370163 328.9029  29.0633 13.64808888611684"
      },
      "geometry": {
        "type": "Point",
        "coordinates": [
          -124.71450609670836,
          -42.23691657462858
        ]
      }
    },
    {
      "type": "Feature",
      "properties": {
        "norad_id": 38208,
        "name": "COSMOS 2251 DEB",
        "group": "cosmos-2251-debris",
        "lat": 26.475832155450302,
        "lon": 60.46915399356199,
        "alt_km": 614.0719307984364,
        "timestamp": "2025-12-26T03:50:12.492321+00:00",
        "meta_object_name": "COSMOS 2251 DEB",
        "meta_object_id": "1993-036BSY",
        "meta_epoch": "2025-12-25T03:35:13.446816",
        "meta_mean_motion": 14.84325765,
        "meta_eccentricity": 7.932e-05,
        "meta_inclination": 74.0039,
        "meta_ra_of_asc_node": 54.2618,
        "meta_arg_of_pericenter": 96.7904,
        "meta_mean_anomaly": 293.9692,
        "meta_ephemeris_type": 0,
        "meta_classification_type": "U",
        "meta_norad_cat_id": 38208,
        "meta_element_set_no": 999,
        "meta_rev_at_epoch": 71343,
        "meta_bstar": 0.0022332437,
        "meta_mean_motion_dot": 0.0001876,
        "meta_mean_motion_ddot": 0,
        "tle_line1": "1 38208U 93036BSY 25359.14946119  .00018760  00000+0  22332-2 0  9996",
        "tle_line2": "2 38208  74.0039  54.2618 0000793  96.7904 293.9692 14.84325765713439"
      },
      "geometry": {
        "type": "Point",
        "coordinates": [
          60.46915399356199,
          26.475832155450302
        ]
      }
    },
    {
      "type": "Feature",
      "properties": {
        "norad_id": 38212,
        "name": "COSMOS 2251 DEB",
        "group": "cosmos-2251-debris",
        "lat": 26.505044181009925,
        "lon": 58.48707367947722,
        "alt_km": 629.8010869296786,
        "timestamp": "2025-12-26T03:50:12.492343+00:00",
        "meta_object_name": "COSMOS 2251 DEB",
        "meta_object_id": "1993-036BTC",
        "meta_epoch": "2025-12-19T04:21:29.490912",
        "meta_mean_motion": 14.77722254,
        "meta_eccentricity": 0.0092064,
        "meta_inclination": 74.0528,
        "meta_ra_of_asc_node": 63.9673,
        "meta_arg_of_pericenter": 129.0689,
        "meta_mean_anomaly": 231.8724,
        "meta_ephemeris_type": 0,
        "meta_classification_type": "U",
        "meta_norad_cat_id": 38212,
        "meta_element_set_no": 999,
        "meta_rev_at_epoch": 81405,
        "meta_bstar": 0.00027193732,
        "meta_mean_motion_dot": 2.056e-05,
        "meta_mean_motion_ddot": 0,
        "tle_line1": "1 38212U 93036BTC 25353.18159133  .00002056  00000+0  27194-3 0  9994",
        "tle_line2": "2 38212  74.0528  63.9673 0092064 129.0689 231.8724 14.77722254814050"
      },
      "geometry": {
        "type": "Point",
        "coordinates": [
          58.48707367947722,
          26.505044181009925
        ]
      }
    }
  ]
}